QIANFAN-65              
1 62795U 25016L   25256.22348162  .00000065  00000+0  82664-4 0  9991
2 62795  88.9761 112.4270 0012147 242.9513 117.0399 13.50968325 35020
QIANFAN-66              
1 62796U 25016M   25256.25228890  .00000066  00000+0  83165-4 0  9998
2 62796  88.9781 112.3764 0013306 238.0623 121.9234 13.50963585 35076
QIANFAN-67              
1 62797U 25016N   25256.18223376  .00000071  00000+0  91863-4 0  9995
2 62797  88.9771 112.4180 0013215 246.0959 113.8808 13.50964970 35031
QIANFAN-68              
1 62798U 25016P   25256.18374047  .00000030  00000+0  27513-4 0  9994
2 62798  88.9775 112.4621 0013453 244.4798 115.4963 13.52427816 35016
QIANFAN-69              
1 62799U 25016Q   25256.19052134  .00000069  00000+0  88393-4 0  9991
2 62799  88.9753 112.3481 0014023 245.3396 114.6295 13.50965148 35050
QIANFAN-70              
1 62800U 25016R   25256.20694893  .00000057  00000+0  69181-4 0  9991
2 62800  88.9774 112.4656 0013707 234.3854 125.6021 13.50969313 35019
QIANFAN-71              
1 62801U 25016S   25256.20291315  .00000054  00000+0  65903-4 0  9999
2 62801  88.9769 112.4511 0013917 249.2896 110.6763 13.50968797 35010
QIANFAN-72              
1 62802U 25016T   25256.05085091  .00000062  00000+0  78895-4 0  9998
2 62802  88.9743 112.4836 0017761 255.9007 104.0169 13.49413664 34980
